[{"OBJECT_NAME":"LAPAN-A3","OBJECT_ID":"2016-040E","EPOCH":"2026-03-09T23:01:57.724896","MEAN_MOTION":15.3238951,"ECCENTRICITY":0.00109839,"INCLINATION":97.1488,"RA_OF_ASC_NODE":68.4254,"ARG_OF_PERICENTER":22.062,"MEAN_ANOMALY":338.1093,"EPHEMERIS_TYPE":0,"CLASSIFICATION_TYPE":"U","NORAD_CAT_ID":41603,"ELEMENT_SET_NO":999,"REV_AT_EPOCH":53961,"BSTAR":0.00017567445,"MEAN_MOTION_DOT":5.428e-5,"MEAN_MOTION_DDOT":0},{"OBJECT_NAME":"STARLINK-32622","OBJECT_ID":"2024-207R","EPOCH":"2026-03-09T22:22:17.427360","MEAN_MOTION":15.27602488,"ECCENTRICITY":8.951e-5,"INCLINATION":42.9991,"RA_OF_ASC_NODE":279.983,"ARG_OF_PERICENTER":273.3347,"MEAN_ANOMALY":86.7402,"EPHEMERIS_TYPE":0,"CLASSIFICATION_TYPE":"U","NORAD_CAT_ID":61927,"ELEMENT_SET_NO":999,"REV_AT_EPOCH":7476,"BSTAR":0.0010789444,"MEAN_MOTION_DOT":0.00029567,"MEAN_MOTION_DDOT":0}]
